ONEWEB-0027             
1 45432U 20020J   23300.67560543 -.00000069  00000+0 -21056-3 0  9999
2 45432  87.9250 197.3581 0001536  81.2198 278.9108 13.17650672179470
ONEWEB-0064             
1 45433U 20020K   23300.70964007 -.00000751  00000+0 -21562-2 0  9996
2 45433  87.9000 212.4835 0001451  74.9901 285.1387 13.11417220176405
ONEWEB-0018             
1 45434U 20020L   23300.51322846  .00000590  00000+0  16283-2 0  9998
2 45434  87.9006 212.5130 0001895  69.1387 290.9943 13.11418277176323
ONEWEB-0083             
1 45435U 20020M   23300.50188650  .00001674  00000+0  46885-2 0  9996
2 45435  87.9004 212.4986 0001871  76.0196 284.1140 13.11408439176366
ONEWEB-0095             
1 45436U 20020N   23300.49387564 -.00000301  00000+0 -88532-3 0  9994
2 45436  87.9005 212.5366 0001914  85.5589 274.5758 13.11418028176363
ONEWEB-0092             
1 45437U 20020P   23300.46129436  .00000235  00000+0  62701-3 0  9998
2 45437  87.9002 212.5223 0001932  86.2687 273.8662 13.11414515176475
ONEWEB-0085             
1 45438U 20020Q   23300.49535776 -.00000204  00000+0 -61147-3 0  9991
2 45438  87.8999 212.5227 0001733  67.3297 292.8014 13.11420998176362
ONEWEB-0096             
1 45439U 20020R   23300.50350111  .00000086  00000+0  20712-3 0  9991
2 45439  87.8997 212.4951 0001992  66.6134 293.5203 13.11420240176350
